DMSP 5D-3 F16 (USA 172) 
1 28054U 03048A   26199.93627583 -.00000057  00000+0 -60598-5 0  9990
2 28054  98.9896 223.9735 0008004  61.9552  55.1414 14.14484743173978
METEOSAT-9 (MSG-2)      
1 28912U 05049B   26199.70264734  .00000113  00000+0  00000+0 0  9993
2 28912   9.4311  53.8532 0002367 357.7093 183.5651  1.00274029  7315
DMSP 5D-3 F17 (USA 191) 
1 29522U 06050A   26199.98972905 -.00000033  00000+0  55406-5 0  9998
2 29522  98.7388 205.9104 0009497 331.5388  28.5266 14.14996235 16927
FENGYUN 3A              
1 32958U 08026A   26199.83533048  .00000016  00000+0  28234-4 0  9993
2 32958  98.6886 140.0776 0009527  42.4086 317.7825 14.19576918939898
EWS-G3 (GOES 14)        
1 35491U 09033A   26199.71794373 -.00000367  00000+0  00000+0 0  9990
2 35491   1.7692  82.6512 0002059  39.5281 195.6580  1.00096577  6901
DMSP 5D-3 F18 (USA 210) 
1 35951U 09057A   26199.89237832  .00000169  00000+0  11028-3 0  9993
2 35951  98.9059 180.5961 0011450 155.2869 204.8855 14.14913332864070
EWS-G2 (GOES 15)        
1 36411U 10008A   26199.95297948  .00000016  00000+0  00000+0 0  9999
2 36411   1.3632  82.4197 0005367  53.8367 206.8335  1.00269304 59956
COMS 1                  
1 36744U 10032A   26199.46968208 -.00000226  00000+0  00000+0 0  9999
2 36744   4.8838  74.9794 0011342  15.0293 324.3937  0.99167179 51396
FENGYUN 3B              
1 37214U 10059A   26199.99666848  .00000173  00000+0  11277-3 0  9996
2 37214  98.9598 246.1433 0023167  96.3726  20.8004 14.14847946811925
SUOMI NPP               
1 37849U 11061A   26199.91823534  .00000026  00000+0  33414-4 0  9998
2 37849  98.7955 140.5787 0000931 196.4340 163.6806 14.19523043762948
METEOSAT-10 (MSG-3)     
1 38552U 12035B   26199.33723751 -.00000017  00000+0  00000+0 0  9999
2 38552   4.7438  60.8671 0001302  16.8895 339.8317  1.00271778 51162
METOP-B                 
1 38771U 12049A   26199.93588599  .00000037  00000+0  36597-4 0  9998
2 38771  98.6487 250.7989 0001211 234.6150 125.4914 14.21447026717772
INSAT-3D                
1 39216U 13038B   26199.71924374 -.00000346  00000+0  00000+0 0  9992
2 39216   2.0058  82.1476 0000957  46.6822 196.0951  1.00274452 47394
FENGYUN 3C              
1 39260U 13052A   26199.98815910  .00000008  00000+0  25022-4 0  9991
2 39260  98.5002 172.4066 0013540 294.2144  65.7616 14.15761169663064
METEOR-M 2              
1 40069U 14037A   26199.89140337  .00000003  00000+0  20841-4 0  9997
2 40069  98.5139 174.5107 0004906 314.3539  45.7237 14.21470198623824
HIMAWARI-8              
1 40267U 14060A   26199.72149708 -.00000282  00000+0  00000+0 0  9996
2 40267   0.0109  49.6415 0001207 114.4796 172.7993  1.00270601 43071
FENGYUN 2G              
1 40367U 14090A   26200.00990537 -.00000310  00000+0  00000+0 0  9990
2 40367   5.7176  72.4319 0003983 174.0404 153.3280  1.00279448 42314
METEOSAT-11 (MSG-4)     
1 40732U 15034A   26199.90408642  .00000054  00000+0  00000+0 0  9996
2 40732   3.2779  70.9049 0002076 355.0205 205.5060  1.00273018  7535
ELEKTRO-L 2             
1 41105U 15074A   26199.40558459 -.00000128  00000+0  00000+0 0  9995
2 41105   6.7707  70.1389 0000957 220.4397 137.1429  1.00272087 38810
SENTINEL-3A             
1 41335U 16011A   26199.91525131  .00000044  00000+0  36285-4 0  9994
2 41335  98.6234 266.8407 0001324  89.1466 270.9866 14.26740431542581
INSAT-3DR               
1 41752U 16054A   26199.84558538 -.00000083  00000+0  00000+0 0  9998
2 41752   0.0791  89.0583 0010426 180.6064  45.3748  1.00271192 36136
HIMAWARI-9              
1 41836U 16064A   26199.72149708 -.00000282  00000+0  00000+0 0  9995
2 41836   0.0335 241.2839 0002091 292.3240 163.3755  1.00271747 35522
GOES 16                 
1 41866U 16071A   26199.58308632 -.00000098  00000+0  00000+0 0  9998
2 41866   0.4128  85.4576 0000592  81.9305 234.2062  1.00271369 35410
FENGYUN 4A              
1 41882U 16077A   26199.21908161 -.00000366  00000+0  00000+0 0  9993
2 41882   2.3999  79.9326 0008408 159.8070 258.8550  1.00266586 35244
CYGFM05                 
1 41884U 16078A   26199.84625671  .00015670  00000+0  20268-3 0  9992
2 41884  34.9570  50.7291 0005373  76.9202 283.2122 15.57968114533696
CYGFM04                 
1 41885U 16078B   26199.84197242  .00020600  00000+0  21725-3 0  9999
2 41885  34.9330  16.7903 0004169 127.9660 232.1443 15.63234226533955
CYGFM02                 
1 41886U 16078C   26199.84260715  .00025345  00000+0  23388-3 0  9994
2 41886  34.9411  10.3456 0004900 129.8285 230.2874 15.66548596534135
CYGFM01                 
1 41887U 16078D   26199.88473442  .00015957  00000+0  20079-3 0  9994
2 41887  34.9401  51.2662 0005310  69.4444 290.6850 15.58692261533650
CYGFM08                 
1 41888U 16078E   26199.85149336  .00019320  00000+0  21721-3 0  9997
2 41888  34.9436  30.1954 0005947 109.5649 250.5719 15.61597389533926
CYGFM07                 
1 41890U 16078G   26199.80855180  .00019739  00000+0  22102-3 0  9994
2 41890  34.9453  18.7952 0004576 127.5190 232.5952 15.61706329533943
CYGFM03                 
1 41891U 16078H   26199.84370647  .00019457  00000+0  21801-3 0  9991
2 41891  34.9408  20.4894 0004297 109.4289 250.6902 15.61693427533925
